[
    {
        "Altitude(m)": 610405.3255168212,
        "Argument of Periapsis(deg)": 0.0,
        "Eccentricity": 0.0,
        "Inclination(deg)": 60.0,
        "Latitude(deg)": 52.111278430983816,
        "Longitude(deg)": 27.477300946079904,
        "Mean Anomaly(deg)": -245.45450000000002,
        "RAAN(deg)": 355.0,
        "Satellite Name": "Test1 1569",
        "Satellite Number": 1569,
        "Semi-Major Axis(m)": 6980739.136638005,
        "Time(s)": 0
    },
    {
        "Altitude(m)": 610321.8989491153,
        "Argument of Periapsis(deg)": 0.00010418945913296404,
        "Eccentricity": 0.0,
        "Inclination(deg)": 60.0,
        "Latitude(deg)": 51.745994634461354,
        "Longitude(deg)": 28.24619642580351,
        "Mean Anomaly(deg)": -244.83439385453818,
        "RAAN(deg)": 354.99957995086027,
        "Satellite Name": "Test1 1569",
        "Satellite Number": 1569,
        "Semi-Major Axis(m)": 6980739.136638005,
        "Time(s)": 10
    },
    {
        "Altitude(m)": 610237.1082234246,
        "Argument of Periapsis(deg)": 0.0002083789182659281,
        "Eccentricity": 0.0,
        "Inclination(deg)": 60.0,
        "Latitude(deg)": 51.37519174022656,
        "Longitude(deg)": 29.00203937354923,
        "Mean Anomaly(deg)": -244.21428770907633,
        "RAAN(deg)": 354.99915990172053,
        "Satellite Name": "Test1 1569",
        "Satellite Number": 1569,
        "Semi-Major Axis(m)": 6980739.136638005,
        "Time(s)": 20
    },
    {
        "Altitude(m)": 610151.0035203509,
        "Argument of Periapsis(deg)": 0.00031256837739889213,
        "Eccentricity": 0.0,
        "Inclination(deg)": 60.0,
        "Latitude(deg)": 50.99902833309898,
        "Longitude(deg)": 29.74502291524642,
        "Mean Anomaly(deg)": -243.59418156361454,
        "RAAN(deg)": 354.9987398525808,
        "Satellite Name": "Test1 1569",
        "Satellite Number": 1569,
        "Semi-Major Axis(m)": 6980739.136638005,
        "Time(s)": 30
    },
    {
        "Altitude(m)": 610063.6358830036,
        "Argument of Periapsis(deg)": 0.0004167578365318562,
        "Eccentricity": 0.0,
        "Inclination(deg)": 60.0,
        "Latitude(deg)": 50.61765924399165,
        "Longitude(deg)": 30.475347878803422,
        "Mean Anomaly(deg)": -242.9740754181527,
        "RAAN(deg)": 354.99831980344106,
        "Satellite Name": "Test1 1569",
        "Satellite Number": 1569,
        "Semi-Major Axis(m)": 6980739.136638005,
        "Time(s)": 40
    },
    {
        "Altitude(m)": 609975.0571923814,
        "Argument of Periapsis(deg)": 0.0005209472956648203,
        "Eccentricity": 0.0,
        "Inclination(deg)": 60.0,
        "Latitude(deg)": 50.23123552477442,
        "Longitude(deg)": 31.193220735457302,
        "Mean Anomaly(deg)": -242.3539692726908,
        "RAAN(deg)": 354.99789975430133,
        "Satellite Name": "Test1 1569",
        "Satellite Number": 1569,
        "Semi-Major Axis(m)": 6980739.136638005,
        "Time(s)": 50
    },
    {
        "Altitude(m)": 609885.320142315,
        "Argument of Periapsis(deg)": 0.0006251367547977843,
        "Eccentricity": 0.0,
        "Inclination(deg)": 60.0,
        "Latitude(deg)": 49.83990443780128,
        "Longitude(deg)": 31.898853124778306,
        "Mean Anomaly(deg)": -241.73386312722909,
        "RAAN(deg)": 354.99747970516154,
        "Satellite Name": "Test1 1569",
        "Satellite Number": 1569,
        "Semi-Major Axis(m)": 6980739.136638005,
        "Time(s)": 60
    },
    {
        "Altitude(m)": 609794.4782139716,
        "Argument of Periapsis(deg)": 0.0007293262139307483,
        "Eccentricity": 0.0,
        "Inclination(deg)": 60.0,
        "Latitude(deg)": 49.44380945866859,
        "Longitude(deg)": 32.592461448933975,
        "Mean Anomaly(deg)": -241.11375698176715,
        "RAAN(deg)": 354.99705965602186,
        "Satellite Name": "Test1 1569",
        "Satellite Number": 1569,
        "Semi-Major Axis(m)": 6980739.136638005,
        "Time(s)": 70
    },
    {
        "Altitude(m)": 609702.5856499688,
        "Argument of Periapsis(deg)": 0.0008335156730637124,
        "Eccentricity": 0.0,
        "Inclination(deg)": 60.0,
        "Latitude(deg)": 49.04309029084598,
        "Longitude(deg)": 33.27426502139702,
        "Mean Anomaly(deg)": -240.49365083630542,
        "RAAN(deg)": 354.99663960688207,
        "Satellite Name": "Test1 1569",
        "Satellite Number": 1569,
        "Semi-Major Axis(m)": 6980739.136638005,
        "Time(s)": 80
    },
    {
        "Altitude(m)": 609609.6974280844,
        "Argument of Periapsis(deg)": 0.0009377051321966765,
        "Eccentricity": 0.0,
        "Inclination(deg)": 60.0,
        "Latitude(deg)": 48.63788289090098,
        "Longitude(deg)": 33.94448579358355,
        "Mean Anomaly(deg)": -239.87354469084354,
        "RAAN(deg)": 354.9962195577423,
        "Satellite Name": "Test1 1569",
        "Satellite Number": 1569,
        "Semi-Major Axis(m)": 6980739.136638005,
        "Time(s)": 90
    },
    {
        "Altitude(m)": 609515.8692345781,
        "Argument of Periapsis(deg)": 0.0010418945913296407,
        "Eccentricity": 0.0,
        "Inclination(deg)": 60.0,
        "Latitude(deg)": 48.228319503115735,
        "Longitude(deg)": 34.60334814401545,
        "Mean Anomaly(deg)": -239.2534385453817,
        "RAAN(deg)": 354.99579950860254,
        "Satellite Name": "Test1 1569",
        "Satellite Number": 1569,
        "Semi-Major Axis(m)": 6980739.136638005,
        "Time(s)": 100
    },
    {
        "Altitude(m)": 609421.1574371179,
        "Argument of Periapsis(deg)": 0.0011460840504626045,
        "Eccentricity": 0.0,
        "Inclination(deg)": 60.0,
        "Latitude(deg)": 47.81452870236688,
        "Longitude(deg)": 35.25107721441706,
        "Mean Anomaly(deg)": -238.63333239991988,
        "RAAN(deg)": 354.9953794594628,
        "Satellite Name": "Test1 1569",
        "Satellite Number": 1569,
        "Semi-Major Axis(m)": 6980739.136638005,
        "Time(s)": 110
    },
    {
        "Altitude(m)": 609325.6190573806,
        "Argument of Periapsis(deg)": 0.0012502735095955685,
        "Eccentricity": 0.0,
        "Inclination(deg)": 60.0,
        "Latitude(deg)": 47.39663544422944,
        "Longitude(deg)": 35.887898815641705,
        "Mean Anomaly(deg)": -238.01322625445806,
        "RAAN(deg)": 354.9949594103231,
        "Satellite Name": "Test1 1569",
        "Satellite Number": 1569,
        "Semi-Major Axis(m)": 6980739.136638005,
        "Time(s)": 120
    },
    {
        "Altitude(m)": 609229.3117432657,
        "Argument of Periapsis(deg)": 0.0013544629687285324,
        "Eccentricity": 0.0,
        "Inclination(deg)": 60.0,
        "Latitude(deg)": 46.9747611213361,
        "Longitude(deg)": 36.514039387611,
        "Mean Anomaly(deg)": -237.39312010899621,
        "RAAN(deg)": 354.99453936118334,
        "Satellite Name": "Test1 1569",
        "Satellite Number": 1569,
        "Semi-Major Axis(m)": 6980739.136638005,
        "Time(s)": 130
    },
    {
        "Altitude(m)": 609132.2937407824,
        "Argument of Periapsis(deg)": 0.0014586524278614966,
        "Eccentricity": 0.0,
        "Inclination(deg)": 60.0,
        "Latitude(deg)": 46.54902362509533,
        "Longitude(deg)": 37.129724497415786,
        "Mean Anomaly(deg)": -236.77301396353437,
        "RAAN(deg)": 354.9941193120436,
        "Satellite Name": "Test1 1569",
        "Satellite Number": 1569,
        "Semi-Major Axis(m)": 6980739.136638005,
        "Time(s)": 140
    },
    {
        "Altitude(m)": 609034.6238656061,
        "Argument of Periapsis(deg)": 0.0015628418869944607,
        "Eccentricity": 0.0,
        "Inclination(deg)": 60.0,
        "Latitude(deg)": 46.11953741195527,
        "Longitude(deg)": 37.73517889833769,
        "Mean Anomaly(deg)": -236.15290781807255,
        "RAAN(deg)": 354.9936992629039,
        "Satellite Name": "Test1 1569",
        "Satellite Number": 1569,
        "Semi-Major Axis(m)": 6980739.136638005,
        "Time(s)": 150
    },
    {
        "Altitude(m)": 608936.3614743202,
        "Argument of Periapsis(deg)": 0.0016670313461274247,
        "Eccentricity": 0.0,
        "Inclination(deg)": 60.0,
        "Latitude(deg)": 45.6864135734618,
        "Longitude(deg)": 38.330626633956896,
        "Mean Anomaly(deg)": -235.5328016726107,
        "RAAN(deg)": 354.99327921376414,
        "Satellite Name": "Test1 1569",
        "Satellite Number": 1569,
        "Semi-Major Axis(m)": 6980739.136638005,
        "Time(s)": 160
    },
    {
        "Altitude(m)": 608837.5664353593,
        "Argument of Periapsis(deg)": 0.0017712208052603888,
        "Eccentricity": 0.0,
        "Inclination(deg)": 60.0,
        "Latitude(deg)": 45.249759909425855,
        "Longitude(deg)": 38.91628967155832,
        "Mean Anomaly(deg)": -234.91269552714883,
        "RAAN(deg)": 354.99285916462435,
        "Satellite Name": "Test1 1569",
        "Satellite Number": 1569,
        "Semi-Major Axis(m)": 6980739.136638005,
        "Time(s)": 170
    },
    {
        "Altitude(m)": 608738.2990996471,
        "Argument of Periapsis(deg)": 0.001875410264393353,
        "Eccentricity": 0.0,
        "Inclination(deg)": 60.0,
        "Latitude(deg)": 44.80968100358543,
        "Longitude(deg)": 39.49238808774712,
        "Mean Anomaly(deg)": -234.2925893816871,
        "RAAN(deg)": 354.9924391154846,
        "Satellite Name": "Test1 1569",
        "Satellite Number": 1569,
        "Semi-Major Axis(m)": 6980739.136638005,
        "Time(s)": 180
    },
    {
        "Altitude(m)": 608638.62027098,
        "Argument of Periapsis(deg)": 0.0019795997235263173,
        "Eccentricity": 0.0,
        "Inclination(deg)": 60.0,
        "Latitude(deg)": 44.36627830120003,
        "Longitude(deg)": 40.05914029064566,
        "Mean Anomaly(deg)": -233.67248323622516,
        "RAAN(deg)": 354.9920190663449,
        "Satellite Name": "Test1 1569",
        "Satellite Number": 1569,
        "Semi-Major Axis(m)": 6980739.136638005,
        "Time(s)": 190
    }
]